     3.02           N: GNSS NAV DATA    C: BEIDOU           RINEX VERSION / TYPE
Spider v7.5.1.8670  SMO                 20250117 080400 UTC PGM / RUN BY / DATE
BDSA   3.9116D-08  1.4901D-08 -7.1526D-07  1.1325D-06       IONOSPHERIC CORR
BDSB   1.2493D+05  6.5536D+04 -1.3763D+06  1.7039D+06       IONOSPHERIC CORR
BDUT -1.8626451492D-09 0.000000000D+00 460745  993          TIME SYSTEM CORR
     4     4   829     6                                    LEAP SECONDS
                                                            END OF HEADER
C47 2029 08 19 00 00 00 0.000000000000D+00 0.000000000000D+00 0.000000000000D+00
     0.000000000000D+00 0.000000000000D+00 0.000000000000D+00 0.000000000000D+00
     0.000000000000D+00 0.000000000000D+00 0.000000000000D+00 0.000000000000D+00
     0.000000000000D+00 0.000000000000D+00 0.000000000000D+00 0.000000000000D+00
     0.000000000000D+00 0.000000000000D+00 0.000000000000D+00 0.000000000000D+00
     0.000000000000D+00                    1.233000000000D+03                   
     4.096000000000D+03 1.000000000000D+00 0.000000000000D+00 0.000000000000D+00
     9.999000000000D+08 0.000000000000D+00                                      
C48 2025 01 16 17 00 00 8.389498107135D-04-4.591882429850D-12 0.000000000000D+00
     1.000000000000D+00-1.156406250000D+02 3.893733779847D-09-2.510914207210D+00
    -5.761627107859D-06 2.626265631989D-04 2.298038452864D-06 5.282630052567D+03
     4.068000000000D+05-9.778887033463D-09-5.571629273866D-01 1.909211277962D-08
     9.652223987586D-01 3.143125000000D+02-1.890967075397D+00-7.174941529797D-09
    -2.171519075667D-10                    9.930000000000D+02                   
     2.000000000000D+00 1.000000000000D+00 1.700000029636D-09 1.700000029636D-09
     4.075500000000D+05 1.000000000000D+00                                      
C49 2025 03 02 00 00 00 0.000000000000D+00 0.000000000000D+00 0.000000000000D+00
     0.000000000000D+00 0.000000000000D+00 0.000000000000D+00 0.000000000000D+00
     0.000000000000D+00 0.000000000000D+00 0.000000000000D+00 0.000000000000D+00
     0.000000000000D+00 0.000000000000D+00 0.000000000000D+00 0.000000000000D+00
     0.000000000000D+00 0.000000000000D+00 0.000000000000D+00 0.000000000000D+00
     0.000000000000D+00                    1.000000000000D+03                   
     4.096000000000D+03 1.000000000000D+00 0.000000000000D+00 0.000000000000D+00
     9.999000000000D+08 0.000000000000D+00                                      
C50 2025 01 17 02 00 00-7.073960732669D-04 9.114486942963D-12 0.000000000000D+00
     1.000000000000D+00-8.906250000000D+01 4.013381627033D-09-9.635538499883D-01
    -4.369765520096D-06 1.512506278232D-04 2.452638000250D-06 5.282624048233D+03
     4.392000000000D+05 8.055940270424D-08-5.571451280623D-01-6.891787052155D-08
     9.651783678503D-01 3.123906250000D+02-1.396467923557D+00-7.188156736504D-09
    -2.989410108345D-10                    9.930000000000D+02                   
     2.000000000000D+00 1.000000000000D+00 3.190000086306D-08 3.190000086306D-08
     4.392300000000D+05 1.000000000000D+00                                      
C56 2025 01 15 07 00 00 6.150292465463D-04 2.140865262845D-11 0.000000000000D+00
     3.100000000000D+01 2.236093750000D+02 2.030798862407D-09-4.883367791298D-01
     6.893184036016D-06 4.641683772206D-03-2.985820174217D-06 6.493828577042D+03
     2.844000000000D+05-3.678724169731D-08 6.373336103602D-01-1.932494342327D-07
     8.998330298175D-01 3.084375000000D+02-2.934558216563D+00-2.780830010707D-09
    -4.321608695901D-11                    9.930000000000D+02                   
     2.000000000000D+00 1.000000000000D+00-3.010000071413D-08 0.000000000000D+00
    -1.785000000000D+04 2.500000000000D+01                                      
C57 2024 10 21 02 10 48-6.510417442769D-04-1.241764024940D-09 9.242823520439D-18
     2.100000000000D+01 1.365328125000D+03 7.802110957300D-09 2.094395101906D+00
     4.068994894624D-05 1.666666666279D-01 4.068994894624D-05 2.730666666031D+03
     3.495200000000D+05-4.069041460752D-05-1.256641097334D+00-4.069041460752D-05
    -2.094395103368D+00 1.365328125000D+03 1.133802612115D+00-1.997371100515D-06
    -1.755787404356D-09                    9.810000000000D+02                   
     1.130000000000D+01 1.000000000000D+00 3.410000104509D-08 3.410000104509D-08
     2.643600000000D+05 2.100000000000D+01                                      
C58 2024 12 04 05 00 00-9.765625000000D-04-1.879865152432D-10 0.000000000000D+00
     3.100000000000D+01-4.206250000000D+01 3.190490094340D-09 9.737284993576D-02
    -2.037733793259D-06 6.833153311163D-04 9.928829967976D-06 5.282618175507D+03
     2.772000000000D+05-4.703179001808D-08 1.971576625017D+00 5.122274160385D-08
     9.749307371385D-01 1.670312500000D+02 9.398374360931D-01-6.581345690648D-09
    -2.007226468370D-10                    9.870000000000D+02                   
     2.000000000000D+00 1.000000000000D+00-8.999999856485D-09 0.000000000000D+00
     1.985100000000D+05 2.500000000000D+01                                      
C59 2025 01 17 06 00 00-1.597218215466D-07 1.643130076445D-13 0.000000000000D+00
     1.000000000000D+00 1.038750000000D+02-1.856148790225D-09 3.090910939293D+00
     3.501307219267D-06 9.219045750797D-05-1.976732164621D-05 6.493437965393D+03
     4.536000000000D+05-1.257285475731D-08-1.044527082506D+00-6.984919309616D-09
     1.097850646915D-01 6.012500000000D+02 2.061463990855D+00 2.849047220366D-09
     1.785788739106D-10                    9.930000000000D+02                   
     2.000000000000D+00 0.000000000000D+00 4.199999992238D-08 4.199999992238D-08
     4.536604000000D+05 1.000000000000D+00                                      
C60 2025 01 17 01 00 00 8.348142728209D-07-3.375077994860D-14 0.000000000000D+00
     1.000000000000D+00 4.090000000000D+02 4.582333679171D-10-1.563801569789D+00
     1.310650259256D-05 3.191527212039D-04 2.355268225074D-05 6.493418027878D+03
     4.356000000000D+05 7.031485438347D-08-2.325192064005D+00-2.030283212662D-07
     1.019108130401D-01-7.217968750000D+02-6.467511689022D-01 4.585905266641D-10
    -4.253748742133D-10                    9.930000000000D+02                   
     2.000000000000D+00 0.000000000000D+00 4.800000041882D-08 4.800000041882D-08
     4.356004000000D+05 1.000000000000D+00                                      
C62 2025 01 17 03 00 00 2.263113856316D-07-4.014566457045D-13 0.000000000000D+00
     1.000000000000D+00 1.225937500000D+02 2.653681996367D-10 2.173902139407D+00
     3.939960151911D-06 2.525564050302D-04 1.873448491096D-05 6.493410207748D+03
     4.428000000000D+05-1.722946763039D-08-2.472196109691D+00 3.492459654808D-08
     1.065811687678D-01-5.670000000000D+02-2.320518798534D+00 6.939575025733D-10
    -5.335936692497D-10                    9.930000000000D+02                   
     2.000000000000D+00 1.000000000000D+00 4.999999969613D-09 4.999999969613D-09
     4.432804000000D+05 1.000000000000D+00                                      
C16 2025 01 17 07 00 00-6.563891656697D-05-3.174438489850D-11 0.000000000000D+00
     1.000000000000D+00-2.881250000000D+01 7.664605061741D-10-1.186144059638D+00
    -1.361593604088D-06 7.848572451621D-03 2.135382965207D-05 6.494001176834D+03
     4.572000000000D+05-1.536682248116D-08 9.735265420538D-01-5.913898348808D-08
     9.625732706290D-01-4.047500000000D+02-2.243414903876D+00-1.697570750636D-09
     5.814527748171D-10                    9.930000000000D+02                   
     2.000000000000D+00 0.000000000000D+00-2.800000009628D-09 4.599999936516D-09
     4.572000000000D+05 0.000000000000D+00                                      
C28 2025 01 17 07 00 00 3.323752898723D-04 4.427569422205D-12 0.000000000000D+00
     1.000000000000D+00 4.092187500000D+01 3.599435638435D-09 1.317038970771D+00
     2.063810825348D-06 2.264620270580D-04 1.070927828550D-05 5.282639160156D+03
     4.572000000000D+05-2.793967723846D-09-2.644416506493D+00 2.793967723846D-09
     9.561355255339D-01 1.418437500000D+02-1.225399096368D+00-6.669206520371D-09
    -1.821504475030D-10                    9.930000000000D+02                   
     2.000000000000D+00 0.000000000000D+00-3.899999878598D-09-3.899999878598D-09
     4.572000000000D+05 1.000000000000D+00                                      
C27 2025 01 17 07 00 00 4.246174357831D-04 5.178968365271D-12 0.000000000000D+00
     1.000000000000D+00 4.378125000000D+01 3.585863606048D-09-1.766892586786D+00
     2.226326614618D-06 5.513126961887D-04 1.083966344595D-05 5.282624023438D+03
     4.572000000000D+05 6.519258022308D-09-2.644145895907D+00 2.700835466385D-08
     9.562589899681D-01 1.364843750000D+02 1.183647339777D+00-6.654920170490D-09
    -1.760787626814D-10                    9.930000000000D+02                   
     2.000000000000D+00 0.000000000000D+00-4.299999911694D-09-4.299999911694D-09
     4.572000000000D+05 1.000000000000D+00                                      
C25 2025 01 17 07 00 00 6.192915607244D-04 1.089972556656D-11 0.000000000000D+00
     1.000000000000D+00 3.881250000000D+01 4.279106846639D-09 2.251473714346D+00
     1.848675310612D-06 6.738030351698D-04 7.633119821548D-06 5.282659996033D+03
     4.572000000000D+05 1.862645149231D-08 1.514512887049D+00-2.468004822731D-08
     9.454831529513D-01 2.002031250000D+02 8.665402590857D-01-6.993148282675D-09
     3.693010897088D-10                    9.930000000000D+02                   
     2.000000000000D+00 0.000000000000D+00 8.000000106811D-10 8.000000106811D-10
     4.572000000000D+05 1.000000000000D+00                                      
